{
  "type": "FeatureCollection",
  "features": [
    {
      "type": "Feature",
      "properties": {
        "norad_id": 36540,
        "name": "COSMOS 2251 DEB",
        "group": "cosmos-2251-debris",
        "lat": -15.187245584766307,
        "lon": -14.964469124455045,
        "alt_km": 693.5815990460342,
        "timestamp": "2025-12-23T05:02:12.427149+00:00",
        "meta_object_name": "COSMOS 2251 DEB",
        "meta_object_id": "1993-036BDA",
        "meta_epoch": "2025-12-21T17:34:21.856224",
        "meta_mean_motion": 14.58559476,
        "meta_eccentricity": 0.00147091,
        "meta_inclination": 74.0275,
        "meta_ra_of_asc_node": 163.3898,
        "meta_arg_of_pericenter": 233.2895,
        "meta_mean_anomaly": 126.6919,
        "meta_ephemeris_type": 0,
        "meta_classification_type": "U",
        "meta_norad_cat_id": 36540,
        "meta_element_set_no": 999,
        "meta_rev_at_epoch": 86141,
        "meta_bstar": 0.0008910607,
        "meta_mean_motion_dot": 4.123e-05,
        "meta_mean_motion_ddot": 0,
        "tle_line1": "1 36540U 93036BDA 25355.73219741  .00004123  00000+0  89106-3 0  9999",
        "tle_line2": "2 36540  74.0275 163.3898 0014709 233.2895 126.6919 14.58559476861414"
      },
      "geometry": {
        "type": "Point",
        "coordinates": [
          -14.964469124455045,
          -15.187245584766307
        ]
      }
    },
    {
      "type": "Feature",
      "properties": {
        "norad_id": 36550,
        "name": "COSMOS 2251 DEB",
        "group": "cosmos-2251-debris",
        "lat": -58.6568695547322,
        "lon": 145.7862307524009,
        "alt_km": 793.158313059992,
        "timestamp": "2025-12-23T05:02:12.427159+00:00",
        "meta_object_name": "COSMOS 2251 DEB",
        "meta_object_id": "1993-036BDL",
        "meta_epoch": "2025-12-18T21:01:50.103840",
        "meta_mean_motion": 14.27217133,
        "meta_eccentricity": 0.00780997,
        "meta_inclination": 74.0439,
        "meta_ra_of_asc_node": 181.6412,
        "meta_arg_of_pericenter": 230.9486,
        "meta_mean_anomaly": 128.4696,
        "meta_ephemeris_type": 0,
        "meta_classification_type": "U",
        "meta_norad_cat_id": 36550,
        "meta_element_set_no": 999,
        "meta_rev_at_epoch": 84683,
        "meta_bstar": 0.00048644345,
        "meta_mean_motion_dot": 1.202e-05,
        "meta_mean_motion_ddot": 0,
        "tle_line1": "1 36550U 93036BDL 25352.87627435  .00001202  00000+0  48644-3 0  9992",
        "tle_line2": "2 36550  74.0439 181.6412 0078099 230.9486 128.4696 14.27217133846832"
      },
      "geometry": {
        "type": "Point",
        "coordinates": [
          145.7862307524009,
          -58.6568695547322
        ]
      }
    },
    {
      "type": "Feature",
      "properties": {
        "norad_id": 36551,
        "name": "COSMOS 2251 DEB",
        "group": "cosmos-2251-debris",
        "lat": -41.17167354828037,
        "lon": -21.508205876893285,
        "alt_km": 530.3298312290635,
        "timestamp": "2025-12-23T05:02:12.427169+00:00",
        "meta_object_name": "COSMOS 2251 DEB",
        "meta_object_id": "1993-036BDM",
        "meta_epoch": "2025-12-22T06:51:38.165760",
        "meta_mean_motion": 15.02842739,
        "meta_eccentricity": 0.0050983,
        "meta_inclination": 73.8864,
        "meta_ra_of_asc_node": 355.0394,
        "meta_arg_of_pericenter": 302.5455,
        "meta_mean_anomaly": 57.0813,
        "meta_ephemeris_type": 0,
        "meta_classification_type": "U",
        "meta_norad_cat_id": 36551,
        "meta_element_set_no": 999,
        "meta_rev_at_epoch": 67075,
        "meta_bstar": 0.0014039105,
        "meta_mean_motion_dot": 0.00019365,
        "meta_mean_motion_ddot": 0,
        "tle_line1": "1 36551U 93036BDM 25356.28585840  .00019365  00000+0  14039-2 0  9994",
        "tle_line2": "2 36551  73.8864 355.0394 0050983 302.5455  57.0813 15.02842739670756"
      },
      "geometry": {
        "type": "Point",
        "coordinates": [
          -21.508205876893285,
          -41.17167354828037
        ]
      }
    },
    {
      "type": "Feature",
      "properties": {
        "norad_id": 36557,
        "name": "COSMOS 2251 DEB",
        "group": "cosmos-2251-debris",
        "lat": 67.21539515796235,
        "lon": -117.55068348272319,
        "alt_km": 639.5457523340956,
        "timestamp": "2025-12-23T05:02:12.427179+00:00",
        "meta_object_name": "COSMOS 2251 DEB",
        "meta_object_id": "1993-036BDT",
        "meta_epoch": "2025-12-22T00:57:08.479008",
        "meta_mean_motion": 14.78653832,
        "meta_eccentricity": 0.00212002,
        "meta_inclination": 73.9802,
        "meta_ra_of_asc_node": 107.9136,
        "meta_arg_of_pericenter": 260.6795,
        "meta_mean_anomaly": 99.1983,
        "meta_ephemeris_type": 0,
        "meta_classification_type": "U",
        "meta_norad_cat_id": 36557,
        "meta_element_set_no": 999,
        "meta_rev_at_epoch": 34034,
        "meta_bstar": 0.0038224462,
        "meta_mean_motion_dot": 0.00028203,
        "meta_mean_motion_ddot": 0,
        "tle_line1": "1 36557U 93036BDT 25356.03968147  .00028203  00000+0  38224-2 0  9991",
        "tle_line2": "2 36557  73.9802 107.9136 0021200 260.6795  99.1983 14.78653832340344"
      },
      "geometry": {
        "type": "Point",
        "coordinates": [
          -117.55068348272319,
          67.21539515796235
        ]
      }
    },
    {
      "type": "Feature",
      "properties": {
        "norad_id": 36558,
        "name": "COSMOS 2251 DEB",
        "group": "cosmos-2251-debris",
        "lat": -68.65696155756446,
        "lon": 1.798188578642677,
        "alt_km": 707.382828731048,
        "timestamp": "2025-12-23T05:02:12.427189+00:00",
        "meta_object_name": "COSMOS 2251 DEB",
        "meta_object_id": "1993-036BDU",
        "meta_epoch": "2025-12-21T08:58:26.792544",
        "meta_mean_motion": 14.55416575,
        "meta_eccentricity": 0.00126133,
        "meta_inclination": 74.0422,
        "meta_ra_of_asc_node": 138.1955,
        "meta_arg_of_pericenter": 226.6468,
        "meta_mean_anomaly": 133.3645,
        "meta_ephemeris_type": 0,
        "meta_classification_type": "U",
        "meta_norad_cat_id": 36558,
        "meta_element_set_no": 999,
        "meta_rev_at_epoch": 85394,
        "meta_bstar": 0.00068051983,
        "meta_mean_motion_dot": 2.933e-05,
        "meta_mean_motion_ddot": 0,
        "tle_line1": "1 36558U 93036BDU 25355.37392121  .00002933  00000+0  68052-3 0  9996",
        "tle_line2": "2 36558  74.0422 138.1955 0012613 226.6468 133.3645 14.55416575853944"
      },
      "geometry": {
        "type": "Point",
        "coordinates": [
          1.798188578642677,
          -68.65696155756446
        ]
      }
    },
    {
      "type": "Feature",
      "properties": {
        "norad_id": 36559,
        "name": "COSMOS 2251 DEB",
        "group": "cosmos-2251-debris",
        "lat": -17.348936981007245,
        "lon": -13.17884167947739,
        "alt_km": 765.8597142608396,
        "timestamp": "2025-12-23T05:02:12.427199+00:00",
        "meta_object_name": "COSMOS 2251 DEB",
        "meta_object_id": "1993-036BDV",
        "meta_epoch": "2025-12-20T23:46:37.184160",
        "meta_mean_motion": 13.9527233,
        "meta_eccentricity": 0.0261353,
        "meta_inclination": 74.1312,
        "meta_ra_of_asc_node": 355.7104,
        "meta_arg_of_pericenter": 25.9739,
        "meta_mean_anomaly": 335.4239,
        "meta_ephemeris_type": 0,
        "meta_classification_type": "U",
        "meta_norad_cat_id": 36559,
        "meta_element_set_no": 999,
        "meta_rev_at_epoch": 81209,
        "meta_bstar": 0.0030098689,
        "meta_mean_motion_dot": 5.397e-05,
        "meta_mean_motion_ddot": 0,
        "tle_line1": "1 36559U 93036BDV 25354.99070815  .00005397  00000+0  30099-2 0  9993",
        "tle_line2": "2 36559  74.1312 355.7104 0261353  25.9739 335.4239 13.95272330812092"
      },
      "geometry": {
        "type": "Point",
        "coordinates": [
          -13.17884167947739,
          -17.348936981007245
        ]
      }
    },
    {
      "type": "Feature",
      "properties": {
        "norad_id": 36614,
        "name": "COSMOS 2251 DEB",
        "group": "cosmos-2251-debris",
        "lat": 72.18731097003668,
        "lon": -88.51501274140406,
        "alt_km": 691.1504046517202,
        "timestamp": "2025-12-23T05:02:12.427208+00:00",
        "meta_object_name": "COSMOS 2251 DEB",
        "meta_object_id": "1993-036BEC",
        "meta_epoch": "2025-12-22T17:04:48.910944",
        "meta_mean_motion": 14.60383139,
        "meta_eccentricity": 0.00156851,
        "meta_inclination": 74.0215,
        "meta_ra_of_asc_node": 155.5311,
        "meta_arg_of_pericenter": 225.2132,
        "meta_mean_anomaly": 134.776,
        "meta_ephemeris_type": 0,
        "meta_classification_type": "U",
        "meta_norad_cat_id": 36614,
        "meta_element_set_no": 999,
        "meta_rev_at_epoch": 65758,
        "meta_bstar": 0.0015603265,
        "meta_mean_motion_dot": 7.542e-05,
        "meta_mean_motion_ddot": 0,
        "tle_line1": "1 36614U 93036BEC 25356.71167721  .00007542  00000+0  15603-2 0  9998",
        "tle_line2": "2 36614  74.0215 155.5311 0015685 225.2132 134.7760 14.60383139657581"
      },
      "geometry": {
        "type": "Point",
        "coordinates": [
          -88.51501274140406,
          72.18731097003668
        ]
      }
    }
  ]
}